{
  "type": "FeatureCollection",
  "features": [
    {
      "type": "Feature",
      "properties": {
        "norad_id": 66614,
        "name": "STARLINK-36040",
        "group": "last-30-days",
        "lat": 36.81116035400188,
        "lon": -15.190290908249759,
        "alt_km": 380.4954492496654,
        "timestamp": "2025-12-08T08:58:59.557851+00:00",
        "meta_object_name": "STARLINK-36040",
        "meta_object_id": "2025-270AC",
        "meta_epoch": "2025-12-07T22:00:03.000096",
        "meta_mean_motion": 15.62827728,
        "meta_eccentricity": 0.00014739,
        "meta_inclination": 42.9988,
        "meta_ra_of_asc_node": 220.9666,
        "meta_arg_of_pericenter": 274.0078,
        "meta_mean_anomaly": 148.4704,
        "meta_ephemeris_type": 0,
        "meta_classification_type": "U",
        "meta_norad_cat_id": 66614,
        "meta_element_set_no": 999,
        "meta_rev_at_epoch": 346,
        "meta_bstar": -0.024560392,
        "meta_mean_motion_dot": -0.02000688,
        "meta_mean_motion_ddot": 0,
        "tle_line1": "1 66614U 25270AC  25341.91670139 -.02000688  00000+0 -24560-1 0  9993",
        "tle_line2": "2 66614  42.9988 220.9666 0001473 274.0078 148.4704 15.62827728  3468"
      },
      "geometry": {
        "type": "Point",
        "coordinates": [
          -15.190290908249759,
          36.81116035400188
        ]
      }
    },
    {
      "type": "Feature",
      "properties": {
        "norad_id": 66615,
        "name": "STARLINK-35988",
        "group": "last-30-days",
        "lat": 37.57087493799058,
        "lon": -17.399586700974243,
        "alt_km": 380.35262339100973,
        "timestamp": "2025-12-08T08:58:59.557861+00:00",
        "meta_object_name": "STARLINK-35988",
        "meta_object_id": "2025-270AD",
        "meta_epoch": "2025-12-07T22:00:03.000096",
        "meta_mean_motion": 15.62827769,
        "meta_eccentricity": 0.00014687,
        "meta_inclination": 42.999,
        "meta_ra_of_asc_node": 220.9716,
        "meta_arg_of_pericenter": 270.8204,
        "meta_mean_anomaly": 149.7394,
        "meta_ephemeris_type": 0,
        "meta_classification_type": "U",
        "meta_norad_cat_id": 66615,
        "meta_element_set_no": 999,
        "meta_rev_at_epoch": 346,
        "meta_bstar": -0.024547141,
        "meta_mean_motion_dot": -0.0199974,
        "meta_mean_motion_ddot": 0,
        "tle_line1": "1 66615U 25270AD  25341.91670139 -.01999740  00000+0 -24547-1 0  9994",
        "tle_line2": "2 66615  42.9990 220.9716 0001468 270.8204 149.7394 15.62827769  3461"
      },
      "geometry": {
        "type": "Point",
        "coordinates": [
          -17.399586700974243,
          37.57087493799058
        ]
      }
    },
    {
      "type": "Feature",
      "properties": {
        "norad_id": 66616,
        "name": "STARLINK-35391",
        "group": "last-30-days",
        "lat": 36.012656084065775,
        "lon": -13.027679423281347,
        "alt_km": 380.5404752078475,
        "timestamp": "2025-12-08T08:58:59.557871+00:00",
        "meta_object_name": "STARLINK-35391",
        "meta_object_id": "2025-270AE",
        "meta_epoch": "2025-12-07T22:00:03.000096",
        "meta_mean_motion": 15.62828195,
        "meta_eccentricity": 0.00014059,
        "meta_inclination": 42.999,
        "meta_ra_of_asc_node": 220.9623,
        "meta_arg_of_pericenter": 271.3001,
        "meta_mean_anomaly": 153.0966,
        "meta_ephemeris_type": 0,
        "meta_classification_type": "U",
        "meta_norad_cat_id": 66616,
        "meta_element_set_no": 999,
        "meta_rev_at_epoch": 373,
        "meta_bstar": -0.024595256,
        "meta_mean_motion_dot": -0.02003158,
        "meta_mean_motion_ddot": 0,
        "tle_line1": "1 66616U 25270AE  25341.91670139 -.02003158  00000+0 -24595-1 0  9998",
        "tle_line2": "2 66616  42.9990 220.9623 0001405 271.3001 153.0966 15.62828195  3738"
      },
      "geometry": {
        "type": "Point",
        "coordinates": [
          -13.027679423281347,
          36.012656084065775
        ]
      }
    },
    {
      "type": "Feature",
      "properties": {
        "norad_id": 66617,
        "name": "STARLINK-35940",
        "group": "last-30-days",
        "lat": 36.11008080775115,
        "lon": -118.41960784297,
        "alt_km": 356.98129194979265,
        "timestamp": "2025-12-08T08:58:59.557882+00:00",
        "meta_object_name": "STARLINK-35940",
        "meta_object_id": "2025-271A",
        "meta_epoch": "2025-12-07T22:00:03.000096",
        "meta_mean_motion": 15.7078851,
        "meta_eccentricity": 9.487e-05,
        "meta_inclination": 53.1591,
        "meta_ra_of_asc_node": 210.6803,
        "meta_arg_of_pericenter": 83.7621,
        "meta_mean_anomaly": 256.2237,
        "meta_ephemeris_type": 0,
        "meta_classification_type": "U",
        "meta_norad_cat_id": 66617,
        "meta_element_set_no": 999,
        "meta_rev_at_epoch": 346,
        "meta_bstar": -0.017397008,
        "meta_mean_motion_dot": -0.01951392,
        "meta_mean_motion_ddot": 0,
        "tle_line1": "1 66617U 25271A   25341.91670139 -.01951392  00000+0 -17397-1 0  9993",
        "tle_line2": "2 66617  53.1591 210.6803 0000948  83.7621 256.2237 15.70788510  3462"
      },
      "geometry": {
        "type": "Point",
        "coordinates": [
          -118.41960784297,
          36.11008080775115
        ]
      }
    },
    {
      "type": "Feature",
      "properties": {
        "norad_id": 66618,
        "name": "STARLINK-35970",
        "group": "last-30-days",
        "lat": 51.79323416271224,
        "lon": -43.96383147527596,
        "alt_km": 354.60618247007096,
        "timestamp": "2025-12-08T08:58:59.557894+00:00",
        "meta_object_name": "STARLINK-35970",
        "meta_object_id": "2025-271B",
        "meta_epoch": "2025-12-07T22:00:03.000096",
        "meta_mean_motion": 15.70793541,
        "meta_eccentricity": 6.683e-05,
        "meta_inclination": 53.1593,
        "meta_ra_of_asc_node": 210.568,
        "meta_arg_of_pericenter": 92.4635,
        "meta_mean_anomaly": 300.8428,
        "meta_ephemeris_type": 0,
        "meta_classification_type": "U",
        "meta_norad_cat_id": 66618,
        "meta_element_set_no": 999,
        "meta_rev_at_epoch": 346,
        "meta_bstar": -0.01747551,
        "meta_mean_motion_dot": -0.01959338,
        "meta_mean_motion_ddot": 0,
        "tle_line1": "1 66618U 25271B   25341.91670139 -.01959338  00000+0 -17476-1 0  9990",
        "tle_line2": "2 66618  53.1593 210.5680 0000668  92.4635 300.8428 15.70793541  3466"
      },
      "geometry": {
        "type": "Point",
        "coordinates": [
          -43.96383147527596,
          51.79323416271224
        ]
      }
    },
    {
      "type": "Feature",
      "properties": {
        "norad_id": 66619,
        "name": "STARLINK-35951",
        "group": "last-30-days",
        "lat": 41.021895326042056,
        "lon": -110.88083926854415,
        "alt_km": 356.3507616980778,
        "timestamp": "2025-12-08T08:58:59.557907+00:00",
        "meta_object_name": "STARLINK-35951",
        "meta_object_id": "2025-271C",
        "meta_epoch": "2025-12-07T22:00:03.000096",
        "meta_mean_motion": 15.70793557,
        "meta_eccentricity": 7.709e-05,
        "meta_inclination": 53.159,
        "meta_ra_of_asc_node": 210.6639,
        "meta_arg_of_pericenter": 95.8439,
        "meta_mean_anomaly": 251.8057,
        "meta_ephemeris_type": 0,
        "meta_classification_type": "U",
        "meta_norad_cat_id": 66619,
        "meta_element_set_no": 999,
        "meta_rev_at_epoch": 346,
        "meta_bstar": -0.017460083,
        "meta_mean_motion_dot": -0.01957885,
        "meta_mean_motion_ddot": 0,
        "tle_line1": "1 66619U 25271C   25341.91670139 -.01957885  00000+0 -17460-1 0  9999",
        "tle_line2": "2 66619  53.1590 210.6639 0000770  95.8439 251.8057 15.70793557  3462"
      },
      "geometry": {
        "type": "Point",
        "coordinates": [
          -110.88083926854415,
          41.021895326042056
        ]
      }
    },
    {
      "type": "Feature",
      "properties": {
        "norad_id": 66620,
        "name": "STARLINK-35936",
        "group": "last-30-days",
        "lat": 37.38315225093853,
        "lon": -116.62917933963455,
        "alt_km": 356.9171788339363,
        "timestamp": "2025-12-08T08:58:59.557917+00:00",
        "meta_object_name": "STARLINK-35936",
        "meta_object_id": "2025-271D",
        "meta_epoch": "2025-12-07T22:00:03.000096",
        "meta_mean_motion": 15.70793036,
        "meta_eccentricity": 6.553e-05,
        "meta_inclination": 53.1592,
        "meta_ra_of_asc_node": 210.6763,
        "meta_arg_of_pericenter": 82.0634,
        "meta_mean_anomaly": 259.835,
        "meta_ephemeris_type": 0,
        "meta_classification_type": "U",
        "meta_norad_cat_id": 66620,
        "meta_element_set_no": 999,
        "meta_rev_at_epoch": 346,
        "meta_bstar": -0.017446201,
        "meta_mean_motion_dot": -0.01956388,
        "meta_mean_motion_ddot": 0,
        "tle_line1": "1 66620U 25271D   25341.91670139 -.01956388  00000+0 -17446-1 0  9992",
        "tle_line2": "2 66620  53.1592 210.6763 0000655  82.0634 259.8350 15.70793036  3467"
      },
      "geometry": {
        "type": "Point",
        "coordinates": [
          -116.62917933963455,
          37.38315225093853
        ]
      }
    }
  ]
}